[{"OBJECT_NAME":"ONEWEB-0120","OBJECT_ID":"2020-100J","EPOCH":"2026-04-14T04:33:14.057856","MEAN_MOTION":13.12440856,"ECCENTRICITY":0.0001733,"INCLINATION":87.8998,"RA_OF_ASC_NODE":3.3876,"ARG_OF_PERICENTER":75.4524,"MEAN_ANOMALY":284.6797,"EPHEMERIS_TYPE":0,"CLASSIFICATION_TYPE":"U","NORAD_CAT_ID":47266,"ELEMENT_SET_NO":999,"REV_AT_EPOCH":25633,"BSTAR":-0.00017016,"MEAN_MOTION_DOT":-4.9e-07,"MEAN_MOTION_DDOT":0.0},{"OBJECT_NAME":"ONEWEB-0121","OBJECT_ID":"2020-100K","EPOCH":"2026-04-13T22:46:37.405056","MEAN_MOTION":13.12440572,"ECCENTRICITY":0.0001948,"INCLINATION":87.901,"RA_OF_ASC_NODE":3.4151,"ARG_OF_PERICENTER":81.1185,"MEAN_ANOMALY":279.0164,"EPHEMERIS_TYPE":0,"CLASSIFICATION_TYPE":"U","NORAD_CAT_ID":47267,"ELEMENT_SET_NO":999,"REV_AT_EPOCH":25621,"BSTAR":0.00080248,"MEAN_MOTION_DOT":3.01e-06,"MEAN_MOTION_DDOT":0.0},{"OBJECT_NAME":"ONEWEB-0122","OBJECT_ID":"2020-100L","EPOCH":"2026-04-14T04:07:26.286528","MEAN_MOTION":13.12441573,"ECCENTRICITY":0.0001887,"INCLINATION":87.9016,"RA_OF_ASC_NODE":3.3742,"ARG_OF_PERICENTER":74.7563,"MEAN_ANOMALY":285.3774,"EPHEMERIS_TYPE":0,"CLASSIFICATION_TYPE":"U","NORAD_CAT_ID":47268,"ELEMENT_SET_NO":999,"REV_AT_EPOCH":25615,"BSTAR":0.0011218,"MEAN_MOTION_DOT":4.16e-06,"MEAN_MOTION_DDOT":0.0},{"OBJECT_NAME":"ONEWEB-0123","OBJECT_ID":"2020-100M","EPOCH":"2026-04-14T04:01:19.918560","MEAN_MOTION":13.12442141,"ECCENTRICITY":0.0001671,"INCLINATION":87.9002,"RA_OF_ASC_NODE":3.3901,"ARG_OF_PERICENTER":79.8682,"MEAN_ANOMALY":280.2635,"EPHEMERIS_TYPE":0,"CLASSIFICATION_TYPE":"U","NORAD_CAT_ID":47269,"ELEMENT_SET_NO":999,"REV_AT_EPOCH":25629,"BSTAR":0.0012684,"MEAN_MOTION_DOT":4.69e-06,"MEAN_MOTION_DDOT":0.0},{"OBJECT_NAME":"ONEWEB-0124","OBJECT_ID":"2020-100N","EPOCH":"2026-04-14T03:46:41.729088","MEAN_MOTION":13.12443683,"ECCENTRICITY":0.0001805,"INCLINATION":87.9004,"RA_OF_ASC_NODE":3.3961,"ARG_OF_PERICENTER":82.8489,"MEAN_ANOMALY":277.2844,"EPHEMERIS_TYPE":0,"CLASSIFICATION_TYPE":"U","NORAD_CAT_ID":47270,"ELEMENT_SET_NO":999,"REV_AT_EPOCH":25617,"BSTAR":0.00088698,"MEAN_MOTION_DOT":3.32e-06,"MEAN_MOTION_DDOT":0.0},{"OBJECT_NAME":"ONEWEB-0125","OBJECT_ID":"2020-100P","EPOCH":"2026-04-14T03:14:58.885728","MEAN_MOTION":13.12442512,"ECCENTRICITY":0.0001687,"INCLINATION":87.9013,"RA_OF_ASC_NODE":3.3762,"ARG_OF_PERICENTER":89.7281,"MEAN_ANOMALY":270.4041,"EPHEMERIS_TYPE":0,"CLASSIFICATION_TYPE":"U","NORAD_CAT_ID":47271,"ELEMENT_SET_NO":999,"REV_AT_EPOCH":25623,"BSTAR":-0.0010038999999999998,"MEAN_MOTION_DOT":-3.48e-06,"MEAN_MOTION_DDOT":0.0},{"OBJECT_NAME":"ONEWEB-0126","OBJECT_ID":"2020-100Q","EPOCH":"2026-04-14T03:44:27.268224","MEAN_MOTION":13.12443466,"ECCENTRICITY":0.0001726,"INCLINATION":87.9005,"RA_OF_ASC_NODE":3.3922,"ARG_OF_PERICENTER":74.9829,"MEAN_ANOMALY":285.149,"EPHEMERIS_TYPE":0,"CLASSIFICATION_TYPE":"U","NORAD_CAT_ID":47272,"ELEMENT_SET_NO":999,"REV_AT_EPOCH":25630,"BSTAR":0.00085404,"MEAN_MOTION_DOT":3.2e-06,"MEAN_MOTION_DDOT":0.0},{"OBJECT_NAME":"ONEWEB-0127","OBJECT_ID":"2020-100R","EPOCH":"2026-04-13T23:15:54.095040","MEAN_MOTION":13.12441849,"ECCENTRICITY":0.0001844,"INCLINATION":87.8999,"RA_OF_ASC_NODE":3.4309,"ARG_OF_PERICENTER":74.9873,"MEAN_ANOMALY":285.1459,"EPHEMERIS_TYPE":0,"CLASSIFICATION_TYPE":"U","NORAD_CAT_ID":47273,"ELEMENT_SET_NO":999,"REV_AT_EPOCH":25630,"BSTAR":-0.0009904,"MEAN_MOTION_DOT":-3.44e-06,"MEAN_MOTION_DDOT":0.0},{"OBJECT_NAME":"ONEWEB-0128","OBJECT_ID":"2020-100S","EPOCH":"2026-04-14T03:27:10.745568","MEAN_MOTION":13.1244282,"ECCENTRICITY":0.0002125,"INCLINATION":87.9002,"RA_OF_ASC_NODE":3.4105,"ARG_OF_PERICENTER":80.6189,"MEAN_ANOMALY":279.518,"EPHEMERIS_TYPE":0,"CLASSIFICATION_TYPE":"U","NORAD_CAT_ID":47274,"ELEMENT_SET_NO":999,"REV_AT_EPOCH":25634,"BSTAR":-0.00037893,"MEAN_MOTION_DOT":-1.24e-06,"MEAN_MOTION_DDOT":0.0},{"OBJECT_NAME":"ONEWEB-0129","OBJECT_ID":"2020-100T","EPOCH":"2026-04-13T23:18:19.793088","MEAN_MOTION":13.12442067,"ECCENTRICITY":0.0001899,"INCLINATION":87.903,"RA_OF_ASC_NODE":3.4114,"ARG_OF_PERICENTER":42.6815,"MEAN_ANOMALY":317.4461,"EPHEMERIS_TYPE":0,"CLASSIFICATION_TYPE":"U","NORAD_CAT_ID":47275,"ELEMENT_SET_NO":999,"REV_AT_EPOCH":25625,"BSTAR":-0.00094785,"MEAN_MOTION_DOT":-3.28e-06,"MEAN_MOTION_DDOT":0.0},{"OBJECT_NAME":"ONEWEB-0130","OBJECT_ID":"2020-100U","EPOCH":"2026-04-14T03:36:56.155680","MEAN_MOTION":13.12443503,"ECCENTRICITY":0.0001859,"INCLINATION":87.9015,"RA_OF_ASC_NODE":3.3709,"ARG_OF_PERICENTER":75.8579,"MEAN_ANOMALY":284.2756,"EPHEMERIS_TYPE":0,"CLASSIFICATION_TYPE":"U","NORAD_CAT_ID":47276,"ELEMENT_SET_NO":999,"REV_AT_EPOCH":25624,"BSTAR":0.00021684000000000002,"MEAN_MOTION_DOT":9.1e-07,"MEAN_MOTION_DDOT":0.0},{"OBJECT_NAME":"ONEWEB-0131","OBJECT_ID":"2020-100V","EPOCH":"2026-04-14T03:32:03.297696","MEAN_MOTION":13.12443708,"ECCENTRICITY":0.0001848,"INCLINATION":87.8999,"RA_OF_ASC_NODE":3.3967,"ARG_OF_PERICENTER":78.1856,"MEAN_ANOMALY":281.9479,"EPHEMERIS_TYPE":0,"CLASSIFICATION_TYPE":"U","NORAD_CAT_ID":47277,"ELEMENT_SET_NO":999,"REV_AT_EPOCH":25628,"BSTAR":3.5772e-05,"MEAN_MOTION_DOT":2.6e-07,"MEAN_MOTION_DDOT":0.0},{"OBJECT_NAME":"ONEWEB-0132","OBJECT_ID":"2020-100W","EPOCH":"2026-04-13T22:44:11.334624","MEAN_MOTION":13.12440414,"ECCENTRICITY":0.0001856,"INCLINATION":87.9004,"RA_OF_ASC_NODE":3.4365,"ARG_OF_PERICENTER":80.2898,"MEAN_ANOMALY":279.844,"EPHEMERIS_TYPE":0,"CLASSIFICATION_TYPE":"U","NORAD_CAT_ID":47278,"ELEMENT_SET_NO":999,"REV_AT_EPOCH":25615,"BSTAR":0.00065293,"MEAN_MOTION_DOT":2.48e-06,"MEAN_MOTION_DDOT":0.0},{"OBJECT_NAME":"ONEWEB-0133","OBJECT_ID":"2020-100X","EPOCH":"2026-04-13T23:08:22.883136","MEAN_MOTION":13.12441163,"ECCENTRICITY":0.000198,"INCLINATION":87.9012,"RA_OF_ASC_NODE":3.402,"ARG_OF_PERICENTER":80.2033,"MEAN_ANOMALY":279.9319,"EPHEMERIS_TYPE":0,"CLASSIFICATION_TYPE":"U","NORAD_CAT_ID":47279,"ELEMENT_SET_NO":999,"REV_AT_EPOCH":25631,"BSTAR":-0.00053365,"MEAN_MOTION_DOT":-1.79e-06,"MEAN_MOTION_DDOT":0.0},{"OBJECT_NAME":"ONEWEB-0134","OBJECT_ID":"2020-100Y","EPOCH":"2026-04-14T03:54:00.865728","MEAN_MOTION":13.1244275,"ECCENTRICITY":0.0002,"INCLINATION":87.9015,"RA_OF_ASC_NODE":3.3597,"ARG_OF_PERICENTER":73.664,"MEAN_ANOMALY":286.4708,"EPHEMERIS_TYPE":0,"CLASSIFICATION_TYPE":"U","NORAD_CAT_ID":47280,"ELEMENT_SET_NO":999,"REV_AT_EPOCH":25631,"BSTAR":0.0011887,"MEAN_MOTION_DOT":4.4e-06,"MEAN_MOTION_DDOT":0.0},{"OBJECT_NAME":"ONEWEB-0135","OBJECT_ID":"2020-100Z","EPOCH":"2026-04-14T03:12:32.272704","MEAN_MOTION":13.12442526,"ECCENTRICITY":0.0002077,"INCLINATION":87.8998,"RA_OF_ASC_NODE":3.3963,"ARG_OF_PERICENTER":75.0476,"MEAN_ANOMALY":285.0882,"EPHEMERIS_TYPE":0,"CLASSIFICATION_TYPE":"U","NORAD_CAT_ID":47281,"ELEMENT_SET_NO":999,"REV_AT_EPOCH":25633,"BSTAR":-0.0011329,"MEAN_MOTION_DOT":-3.95e-06,"MEAN_MOTION_DDOT":0.0},{"OBJECT_NAME":"ONEWEB-0136","OBJECT_ID":"2020-100AA","EPOCH":"2026-04-14T03:39:23.043456","MEAN_MOTION":13.12443609,"ECCENTRICITY":0.0002009,"INCLINATION":87.9016,"RA_OF_ASC_NODE":3.369,"ARG_OF_PERICENTER":71.1642,"MEAN_ANOMALY":288.9704,"EPHEMERIS_TYPE":0,"CLASSIFICATION_TYPE":"U","NORAD_CAT_ID":47282,"ELEMENT_SET_NO":999,"REV_AT_EPOCH":25626,"BSTAR":0.00026481,"MEAN_MOTION_DOT":1.08e-06,"MEAN_MOTION_DDOT":0.0}]