ONEWEB-0120             
1 47266U 20100J   26104.18974604 -.00000049  00000+0 -17016-3 0  9992
2 47266  87.8998   3.3876 0001733  75.4524 284.6797 13.12440856256330
ONEWEB-0121             
1 47267U 20100K   26103.94904404  .00000301  00000+0  80248-3 0  9993
2 47267  87.9010   3.4151 0001948  81.1185 279.0164 13.12440572256217
ONEWEB-0122             
1 47268U 20100L   26104.17183202  .00000416  00000+0  11218-2 0  9992
2 47268  87.9016   3.3742 0001887  74.7563 285.3774 13.12441573256151
ONEWEB-0123             
1 47269U 20100M   26104.16759165  .00000469  00000+0  12684-2 0  9995
2 47269  87.9002   3.3901 0001671  79.8682 280.2635 13.12442141256290
ONEWEB-0124             
1 47270U 20100N   26104.15742742  .00000332  00000+0  88698-3 0  9997
2 47270  87.9004   3.3961 0001805  82.8489 277.2844 13.12443683256175
ONEWEB-0125             
1 47271U 20100P   26104.13540377 -.00000348  00000+0 -10039-2 0  9998
2 47271  87.9013   3.3762 0001687  89.7281 270.4041 13.12442512256230
ONEWEB-0126             
1 47272U 20100Q   26104.15587116  .00000320  00000+0  85404-3 0  9990
2 47272  87.9005   3.3922 0001726  74.9829 285.1490 13.12443466256306
ONEWEB-0127             
1 47273U 20100R   26103.96937610 -.00000344  00000+0 -99040-3 0  9996
2 47273  87.8999   3.4309 0001844  74.9873 285.1459 13.12441849256306
ONEWEB-0128             
1 47274U 20100S   26104.14387437 -.00000124  00000+0 -37893-3 0  9998
2 47274  87.9002   3.4105 0002125  80.6189 279.5180 13.12442820256346
ONEWEB-0129             
1 47275U 20100T   26103.97106242 -.00000328  00000+0 -94785-3 0  9991
2 47275  87.9030   3.4114 0001899  42.6815 317.4461 13.12442067256256
ONEWEB-0130             
1 47276U 20100U   26104.15064995  .00000091  00000+0  21684-3 0  9994
2 47276  87.9015   3.3709 0001859  75.8579 284.2756 13.12443503256243
ONEWEB-0131             
1 47277U 20100V   26104.14726039  .00000026  00000+0  35772-4 0  9990
2 47277  87.8999   3.3967 0001848  78.1856 281.9479 13.12443708256289
ONEWEB-0132             
1 47278U 20100W   26103.94735341  .00000248  00000+0  65293-3 0  9990
2 47278  87.9004   3.4365 0001856  80.2898 279.8440 13.12440414256151
ONEWEB-0133             
1 47279U 20100X   26103.96415374 -.00000179  00000+0 -53365-3 0  9996
2 47279  87.9012   3.4020 0001980  80.2033 279.9319 13.12441163256314
ONEWEB-0134             
1 47280U 20100Y   26104.16251002  .00000440  00000+0  11887-2 0  9998
2 47280  87.9015   3.3597 0002000  73.6640 286.4708 13.12442750256319
ONEWEB-0135             
1 47281U 20100Z   26104.13370686 -.00000395  00000+0 -11329-2 0  9998
2 47281  87.8998   3.3963 0002077  75.0476 285.0882 13.12442526256334
ONEWEB-0136             
1 47282U 20100AA  26104.15235004  .00000108  00000+0  26481-3 0  9991
2 47282  87.9016   3.3690 0002009  71.1642 288.9704 13.12443609256261
